{"type": "FeatureCollection", "features": [ {"type": "Feature", "properties": {"norad_id": 37867, "name": "COSMOS 2476 (744)", "group": "gnss", "lat": 23.231330081994415, "lon": 90.59458519603686, "alt_km": 19181.319965936807, "timestamp": "2025-12-13T15:35:12.349271+00:00", "meta": {"OBJECT_NAME": "COSMOS 2476 (744)", "OBJECT_ID": "2011-064A", "EPOCH": "2025-12-10T19:30:14.482368", "MEAN_MOTION": 2.13101258, "ECCENTRICITY": 0.00238922, "INCLINATION": 65.1614, "RA_OF_ASC_NODE": 79.2364, "ARG_OF_PERICENTER": 233.6597, "MEAN_ANOMALY": 135.7131, "EPHEMERIS_TYPE": 0, "CLASSIFICATION_TYPE": "U", "NORAD_CAT_ID": 37867, "ELEMENT_SET_NO": 999, "REV_AT_EPOCH": 10975, "BSTAR": 0, "MEAN_MOTION_DOT": -2.4e-07, "MEAN_MOTION_DDOT": 0}, "tle": {"line1": "1 37867U 11064A   25344.81266762 -.00000024  00000+0  00000+0 0  9994", "line2": "2 37867  65.1614  79.2364 0023892 233.6597 135.7131  2.13101258109752"}}, "geometry": {"type": "Point", "coordinates": [90.59458519603686, 23.231330081994415]}}, {"type": "Feature", "properties": {"norad_id": 37868, "name": "COSMOS 2477 (745)", "group": "gnss", "lat": -23.899892624219174, "lon": -88.95568076014143, "alt_km": 19085.69220654574, "timestamp": "2025-12-13T15:35:12.349289+00:00", "meta": {"OBJECT_NAME": "COSMOS 2477 (745)", "OBJECT_ID": "2011-064B", "EPOCH": "2025-12-12T21:57:38.702592", "MEAN_MOTION": 2.13102761, "ECCENTRICITY": 0.00211332, "INCLINATION": 65.1692, "RA_OF_ASC_NODE": 79.2429, "ARG_OF_PERICENTER": 234.633, "MEAN_ANOMALY": 128.5252, "EPHEMERIS_TYPE": 0, "CLASSIFICATION_TYPE": "U", "NORAD_CAT_ID": 37868, "ELEMENT_SET_NO": 999, "REV_AT_EPOCH": 10979, "BSTAR": 0, "MEAN_MOTION_DOT": -4.4e-07, "MEAN_MOTION_DDOT": 0}, "tle": {"line1": "1 37868U 11064B   25346.91503128 -.00000044  00000+0  00000+0 0  9990", "line2": "2 37868  65.1692  79.2429 0021133 234.6330 128.5252  2.13102761109791"}}, "geometry": {"type": "Point", "coordinates": [-88.95568076014143, -23.899892624219174]}}, {"type": "Feature", "properties": {"norad_id": 37869, "name": "COSMOS 2475 (743)", "group": "gnss", "lat": 16.050856586423688, "lon": -108.39867879695987, "alt_km": 19123.502494377786, "timestamp": "2025-12-13T15:35:12.349304+00:00", "meta": {"OBJECT_NAME": "COSMOS 2475 (743)", "OBJECT_ID": "2011-064C", "EPOCH": "2025-12-09T06:02:05.700768", "MEAN_MOTION": 2.13101306, "ECCENTRICITY": 0.0026081, "INCLINATION": 65.1742, "RA_OF_ASC_NODE": 79.3871, "ARG_OF_PERICENTER": 248.2695, "MEAN_ANOMALY": 140.2782, "EPHEMERIS_TYPE": 0, "CLASSIFICATION_TYPE": "U", "NORAD_CAT_ID": 37869, "ELEMENT_SET_NO": 999, "REV_AT_EPOCH": 10972, "BSTAR": 0, "MEAN_MOTION_DOT": -1.3e-07, "MEAN_MOTION_DDOT": 0}, "tle": {"line1": "1 37869U 11064C   25343.25145487 -.00000013  00000+0  00000+0 0  9991", "line2": "2 37869  65.1742  79.3871 0026081 248.2695 140.2782  2.13101306109728"}}, "geometry": {"type": "Point", "coordinates": [-108.39867879695987, 16.050856586423688]}}, {"type": "Feature", "properties": {"norad_id": 37948, "name": "BEIDOU-2 IGSO-5 (C10)", "group": "gnss", "lat": 32.141446629185005, "lon": 59.44230926528812, "alt_km": 35755.10628155291, "timestamp": "2025-12-13T15:35:12.349316+00:00", "meta": {"OBJECT_NAME": "BEIDOU-2 IGSO-5 (C10)", "OBJECT_ID": "2011-073A", "EPOCH": "2025-12-12T18:24:47.608416", "MEAN_MOTION": 1.00291151, "ECCENTRICITY": 0.01101752, "INCLINATION": 48.0199, "RA_OF_ASC_NODE": 273.857, "ARG_OF_PERICENTER": 222.308, "MEAN_ANOMALY": 314.7254, "EPHEMERIS_TYPE": 0, "CLASSIFICATION_TYPE": "U", "NORAD_CAT_ID": 37948, "ELEMENT_SET_NO": 999, "REV_AT_EPOCH": 5126, "BSTAR": 0, "MEAN_MOTION_DOT": -2.21e-06, "MEAN_MOTION_DDOT": 0}, "tle": {"line1": "1 37948U 11073A   25346.76721769 -.00000221  00000+0  00000+0 0  9992", "line2": "2 37948  48.0199 273.8570 0110175 222.3080 314.7254  1.00291151 51268"}}, "geometry": {"type": "Point", "coordinates": [59.44230926528812, 32.141446629185005]}}, {"type": "Feature", "properties": {"norad_id": 37951, "name": "LUCH 5A (SDCM/PRN 140)", "group": "gnss", "lat": 6.0466024821581925, "lon": 123.11138354961852, "alt_km": 35800.705704381944, "timestamp": "2025-12-13T15:35:12.349327+00:00", "meta": {"OBJECT_NAME": "LUCH 5A (SDCM/PRN 140)", "OBJECT_ID": "2011-074B", "EPOCH": "2025-12-12T13:06:30.629376", "MEAN_MOTION": 1.00274985, "ECCENTRICITY": 0.00055326, "INCLINATION": 8.2797, "RA_OF_ASC_NODE": 76.5885, "ARG_OF_PERICENTER": 180.9843, "MEAN_ANOMALY": 187.6109, "EPHEMERIS_TYPE": 0, "CLASSIFICATION_TYPE": "U", "NORAD_CAT_ID": 37951, "ELEMENT_SET_NO": 999, "REV_AT_EPOCH": 5118, "BSTAR": 0, "MEAN_MOTION_DOT": -3.9e-07, "MEAN_MOTION_DDOT": 0}, "tle": {"line1": "1 37951U 11074B   25346.54618784 -.00000039  00000+0  00000+0 0  9992", "line2": "2 37951   8.2797  76.5885 0005532 180.9843 187.6109  1.00274985 51180"}}, "geometry": {"type": "Point", "coordinates": [123.11138354961852, 6.0466024821581925]}}, {"type": "Feature", "properties": {"norad_id": 38091, "name": "BEIDOU-2 G5 (C05)", "group": "gnss", "lat": -2.5493338901465545, "lon": 15.35868142343517, "alt_km": 35773.38257003871, "timestamp": "2025-12-13T15:35:12.349339+00:00", "meta": {"OBJECT_NAME": "BEIDOU-2 G5 (C05)", "OBJECT_ID": "2012-008A", "EPOCH": "2025-12-13T00:01:56.388576", "MEAN_MOTION": 1.00275764, "ECCENTRICITY": 0.00125754, "INCLINATION": 3.1102, "RA_OF_ASC_NODE": 70.7112, "ARG_OF_PERICENTER": 227.693, "MEAN_ANOMALY": 202.8143, "EPHEMERIS_TYPE": 0, "CLASSIFICATION_TYPE": "U", "NORAD_CAT_ID": 38091, "ELEMENT_SET_NO": 999, "REV_AT_EPOCH": 5050, "BSTAR": 0, "MEAN_MOTION_DOT": 6.8e-07, "MEAN_MOTION_DDOT": 0}, "tle": {"line1": "1 38091U 12008A   25347.00134709  .00000068  00000+0  00000+0 0  9999", "line2": "2 38091   3.1102  70.7112 0012575 227.6930 202.8143  1.00275764 50509"}}, "geometry": {"type": "Point", "coordinates": [15.35868142343517, -2.5493338901465545]}}, {"type": "Feature", "properties": {"norad_id": 38250, "name": "BEIDOU-2 M3 (C11)", "group": "gnss", "lat": 11.581600758947348, "lon": 123.13910933571077, "alt_km": 21547.820063319985, "timestamp": "2025-12-13T15:35:12.349351+00:00", "meta": {"OBJECT_NAME": "BEIDOU-2 M3 (C11)", "OBJECT_ID": "2012-018A", "EPOCH": "2025-12-09T02:31:53.071968", "MEAN_MOTION": 1.86229533, "ECCENTRICITY": 0.00244707, "INCLINATION": 55.9232, "RA_OF_ASC_NODE": 311.2798, "ARG_OF_PERICENTER": 273.7022, "MEAN_ANOMALY": 86.0063, "EPHEMERIS_TYPE": 0, "CLASSIFICATION_TYPE": "U", "NORAD_CAT_ID": 38250, "ELEMENT_SET_NO": 999, "REV_AT_EPOCH": 9240, "BSTAR": 0, "MEAN_MOTION_DOT": -7.5e-07, "MEAN_MOTION_DDOT": 0}, "tle": {"line1": "1 38250U 12018A   25343.10547537 -.00000075  00000+0  00000+0 0  9990", "line2": "2 38250  55.9232 311.2798 0024470 273.7022  86.0063  1.86229533 92404"}}, "geometry": {"type": "Point", "coordinates": [123.13910933571077, 11.581600758947348]}}, {"type": "Feature", "properties": {"norad_id": 38251, "name": "BEIDOU-2 M4 (C12)", "group": "gnss", "lat": -25.79220765250194, "lon": 149.49683700781844, "alt_km": 21513.547547059396, "timestamp": "2025-12-13T15:35:12.349362+00:00", "meta": {"OBJECT_NAME": "BEIDOU-2 M4 (C12)", "OBJECT_ID": "2012-018B", "EPOCH": "2025-12-12T06:13:22.160064", "MEAN_MOTION": 1.86229301, "ECCENTRICITY": 0.0015548, "INCLINATION": 55.8219, "RA_OF_ASC_NODE": 310.4024, "ARG_OF_PERICENTER": 277.1255, "MEAN_ANOMALY": 82.6882, "EPHEMERIS_TYPE": 0, "CLASSIFICATION_TYPE": "U", "NORAD_CAT_ID": 38251, "ELEMENT_SET_NO": 999, "REV_AT_EPOCH": 9246, "BSTAR": 0, "MEAN_MOTION_DOT": -9e-07, "MEAN_MOTION_DDOT": 0}, "tle": {"line1": "1 38251U 12018B   25346.25928426 -.00000090  00000+0  00000+0 0  9997", "line2": "2 38251  55.8219 310.4024 0015548 277.1255  82.6882  1.86229301 92464"}}, "geometry": {"type": "Point", "coordinates": [149.49683700781844, -25.79220765250194]}}, {"type": "Feature", "properties": {"norad_id": 38652, "name": "SES-5 (EGNOS/PRN 136)", "group": "gnss", "lat": 0.011553425318357806, "lon": -38.63571261315832, "alt_km": 35781.85069593802, "timestamp": "2025-12-13T15:35:12.349374+00:00", "meta": {"OBJECT_NAME": "SES-5 (EGNOS/PRN 136)", "OBJECT_ID": "2012-036A", "EPOCH": "2025-12-12T13:30:18.514656", "MEAN_MOTION": 1.00270732, "ECCENTRICITY": 0.00020933, "INCLINATION": 0.0553, "RA_OF_ASC_NODE": 306.3016, "ARG_OF_PERICENTER": 315.2407, "MEAN_ANOMALY": 27.5172, "EPHEMERIS_TYPE": 0, "CLASSIFICATION_TYPE": "U", "NORAD_CAT_ID": 38652, "ELEMENT_SET_NO": 999, "REV_AT_EPOCH": 4259, "BSTAR": 0, "MEAN_MOTION_DOT": 4.5e-07, "MEAN_MOTION_DDOT": 0}, "tle": {"line1": "1 38652U 12036A   25346.56271429  .00000045  00000+0  00000+0 0  9999", "line2": "2 38652   0.0553 306.3016 0002093 315.2407  27.5172  1.00270732 42590"}}, "geometry": {"type": "Point", "coordinates": [-38.63571261315832, 0.011553425318357806]}}, {"type": "Feature", "properties": {"norad_id": 38775, "name": "BEIDOU-2 M6 (C14)", "group": "gnss", "lat": 36.769380977459015, "lon": 98.8133442202122, "alt_km": 21508.614708691377, "timestamp": "2025-12-13T15:35:12.349388+00:00", "meta": {"OBJECT_NAME": "BEIDOU-2 M6 (C14)", "OBJECT_ID": "2012-050B", "EPOCH": "2025-12-11T10:23:51.015840", "MEAN_MOTION": 1.86230797, "ECCENTRICITY": 0.00111593, "INCLINATION": 56.3773, "RA_OF_ASC_NODE": 69.1107, "ARG_OF_PERICENTER": 344.6089, "MEAN_ANOMALY": 15.3783, "EPHEMERIS_TYPE": 0, "CLASSIFICATION_TYPE": "U", "NORAD_CAT_ID": 38775, "ELEMENT_SET_NO": 999, "REV_AT_EPOCH": 8981, "BSTAR": 0, "MEAN_MOTION_DOT": -6.3e-07, "MEAN_MOTION_DDOT": 0}, "tle": {"line1": "1 38775U 12050B   25345.43322935 -.00000063  00000+0  00000+0 0  9996", "line2": "2 38775  56.3773  69.1107 0011159 344.6089  15.3783  1.86230797 89814"}}, "geometry": {"type": "Point", "coordinates": [98.8133442202122, 36.769380977459015]}}]}